IRIDIUM 159             
1 43578U 18061K   25353.27322411  .00000201  00000+0  64823-4 0  9992
2 43578  86.3978 131.9374 0001985  90.3494 269.7929 14.34217843387593
IRIDIUM 180             
1 43922U 19002A   25353.13318253  .00000182  00000+0  57818-4 0  9999
2 43922  86.3963  68.8685 0001967  95.0522 265.0898 14.34218384363181
IRIDIUM 176             
1 43923U 19002B   25353.24848116  .00000753  00000+0  11550-3 0  9994
2 43923  86.6085  68.7900 0002340  95.9298 264.2186 14.72256870372774
IRIDIUM 168             
1 43924U 19002C   25353.19660540  .00000235  00000+0  76996-4 0  9993
2 43924  86.3965  68.9143 0002096  98.2561 261.8872 14.34216010363176
IRIDIUM 173             
1 43925U 19002D   25353.25368577  .00000190  00000+0  60913-4 0  9998
2 43925  86.3962  68.7876 0002068 106.9029 253.2393 14.34217052363169
IRIDIUM 169             
1 43926U 19002E   25353.24191475  .00000304  00000+0  92839-4 0  9998
2 43926  86.4225 100.4436 0002361 124.2691 235.8731 14.38609847364358
IRIDIUM 172             
1 43927U 19002F   25353.24734550  .00000240  00000+0  78731-4 0  9990
2 43927  86.3961  68.7965 0001971  93.8887 266.2534 14.34215981363178
IRIDIUM 175             
1 43928U 19002G   25353.31172937  .00000697  00000+0  10657-3 0  9992
2 43928  86.1497  10.7971 0003212  85.7637 274.3947 14.72246720372779
